start=new Date('2022-07-07T00:00:00.000Z').valueOf();
sats=[{"MEAN_MOTION":"15.73202074","RA_OF_ASC_NODE":"310.5598","REF_FRAME":"TEME","ECCENTRICITY":"0.00020040","MEAN_ANOMALY":"205.2106","TLE_LINE1":"1 52840U 22062L   22187.58334491  .00012914  00000-0  96282-4 0  9996","PERIAPSIS":"348.406","GP_ID":"207541858","LAUNCH_DATE":"2022-06-17","OBJECT_NAME":"STARLINK-4049","EPHEMERIS_TYPE":"0","SITE":"AFETR","INCLINATION":"53.2153","COUNTRY_CODE":"US","ELEMENT_SET_NO":"999","APOAPSIS":"351.103","MEAN_ELEMENT_THEORY":"SGP4","REV_AT_EPOCH":"130","FILE":"3508782","NORAD_CAT_ID":"52840","PERIOD":"91.533","CLASSIFICATION_TYPE":"U","MEAN_MOTION_DDOT":"0.0000000000000","OBJECT_TYPE":"PAYLOAD","EPOCH":"2022-07-06T14:00:01.000224","DECAY_DATE":null,"BSTAR":"0.00009628200000","MEAN_MOTION_DOT":"0.00012914","CENTER_NAME":"EARTH","RCS_SIZE":"LARGE","SEMIMAJOR_AXIS":"6727.889","TLE_LINE2":"2 52840  53.2153 310.5598 0002004  42.4926 205.2106 15.73202074  1305","OBJECT_ID":"2022-062L","ARG_OF_PERICENTER":"42.4926","TIME_SYSTEM":"UTC"},{"RCS_SIZE":"MEDIUM","SEMIMAJOR_AXIS":"6727.978","CENTER_NAME":"EARTH","TIME_SYSTEM":"UTC","ARG_OF_PERICENTER":"50.3831","OBJECT_ID":"2022-062M","TLE_LINE2":"2 52841  53.2161 310.5573 0001768  50.3831 199.6978 15.73171067  1307","MEAN_MOTION_DOT":"0.00011609","BSTAR":"0.00008712200000","DECAY_DATE":null,"MEAN_MOTION_DDOT":"0.0000000000000","EPOCH":"2022-07-06T14:00:01.000224","OBJECT_TYPE":"PAYLOAD","COUNTRY_CODE":"US","NORAD_CAT_ID":"52841","PERIOD":"91.535","CLASSIFICATION_TYPE":"U","FILE":"3508782","REV_AT_EPOCH":"130","MEAN_ELEMENT_THEORY":"SGP4","ELEMENT_SET_NO":"999","APOAPSIS":"351.032","EPHEMERIS_TYPE":"0","OBJECT_NAME":"STARLINK-4065","LAUNCH_DATE":"2022-06-17","INCLINATION":"53.2161","SITE":"AFETR","TLE_LINE1":"1 52841U 22062M   22187.58334491  .00011609  00000-0  87122-4 0  9990","GP_ID":"207542549","PERIAPSIS":"348.653","REF_FRAME":"TEME","RA_OF_ASC_NODE":"310.5573","MEAN_MOTION":"15.73171067","ECCENTRICITY":"0.00017680","MEAN_ANOMALY":"199.6978"},{"REV_AT_EPOCH":"130","MEAN_ELEMENT_THEORY":"SGP4","ELEMENT_SET_NO":"999","APOAPSIS":"350.781","PERIOD":"91.532","CLASSIFICATION_TYPE":"U","NORAD_CAT_ID":"52842","FILE":"3508782","COUNTRY_CODE":"US","SITE":"AFETR","INCLINATION":"53.2155","OBJECT_NAME":"STARLINK-4046","LAUNCH_DATE":"2022-06-17","EPHEMERIS_TYPE":"0","PERIAPSIS":"348.589","GP_ID":"207542301","TLE_LINE1":"1 52842U 22062N   22187.58334491 -.00046181  00000-0 -32604-3 0  9990","ECCENTRICITY":"0.00016290","MEAN_ANOMALY":"210.2210","RA_OF_ASC_NODE":"310.5628","MEAN_MOTION":"15.73226413","REF_FRAME":"TEME","OBJECT_ID":"2022-062N","TLE_LINE2":"2 52842  53.2155 310.5628 0001629  36.3086 210.2210 15.73226413  1309","ARG_OF_PERICENTER":"36.3086","TIME_SYSTEM":"UTC","CENTER_NAME":"EARTH","RCS_SIZE":"LARGE","SEMIMAJOR_AXIS":"6727.820","MEAN_MOTION_DOT":"-0.00046181","BSTAR":"-0.00032604000000","DECAY_DATE":null,"OBJECT_TYPE":"PAYLOAD","EPOCH":"2022-07-06T14:00:01.000224","MEAN_MOTION_DDOT":"0.0000000000000"},{"GP_ID":"207542400","PERIAPSIS":"348.791","TLE_LINE1":"1 52843U 22062P   22187.58334491  .00012966  00000-0  96805-4 0  9997","ECCENTRICITY":"0.00015930","MEAN_ANOMALY":"205.6903","REF_FRAME":"TEME","MEAN_MOTION":"15.73164003","RA_OF_ASC_NODE":"310.5548","FILE":"3508782","PERIOD":"91.535","CLASSIFICATION_TYPE":"U","NORAD_CAT_ID":"52843","APOAPSIS":"350.935","ELEMENT_SET_NO":"999","REV_AT_EPOCH":"130","MEAN_ELEMENT_THEORY":"SGP4","COUNTRY_CODE":"US","INCLINATION":"53.2162","SITE":"AFETR","EPHEMERIS_TYPE":"0","LAUNCH_DATE":"2022-06-17","OBJECT_NAME":"STARLINK-4188","DECAY_DATE":null,"EPOCH":"2022-07-06T14:00:01.000224","OBJECT_TYPE":"PAYLOAD","MEAN_MOTION_DDOT":"0.0000000000000","ARG_OF_PERICENTER":"45.5757","TIME_SYSTEM":"UTC","TLE_LINE2":"2 52843  53.2162 310.5548 0001593  45.5757 205.6903 15.73164003  1309","OBJECT_ID":"2022-062P","RCS_SIZE":"LARGE","SEMIMAJOR_AXIS":"6727.998","CENTER_NAME":"EARTH","MEAN_MOTION_DOT":"0.00012966","BSTAR":"0.00009680500000"},{"DECAY_DATE":null,"MEAN_MOTION_DDOT":"0.0000000000000","OBJECT_TYPE":"PAYLOAD","EPOCH":"2022-07-06T14:00:01.000224","RCS_SIZE":"LARGE","SEMIMAJOR_AXIS":"6727.998","CENTER_NAME":"EARTH","ARG_OF_PERICENTER":"43.4146","TIME_SYSTEM":"UTC","OBJECT_ID":"2022-062Q","TLE_LINE2":"2 52844  53.2156 310.5580 0001993  43.4146 205.4404 15.73163995  1305","BSTAR":"0.00007797300000","MEAN_MOTION_DOT":"0.00010319","TLE_LINE1":"1 52844U 22062Q   22187.58334491  .00010319  00000-0  77973-4 0  9993","GP_ID":"207542202","PERIAPSIS":"348.522","REF_FRAME":"TEME","MEAN_MOTION":"15.73163995","RA_OF_ASC_NODE":"310.5580","ECCENTRICITY":"0.00019930","MEAN_ANOMALY":"205.4404","COUNTRY_CODE":"US","NORAD_CAT_ID":"52844","PERIOD":"91.535","CLASSIFICATION_TYPE":"U","FILE":"3508782","REV_AT_EPOCH":"130","MEAN_ELEMENT_THEORY":"SGP4","ELEMENT_SET_NO":"999","APOAPSIS":"351.204","EPHEMERIS_TYPE":"0","OBJECT_NAME":"STARLINK-4208","LAUNCH_DATE":"2022-06-17","INCLINATION":"53.2156","SITE":"AFETR"},{"TLE_LINE2":"2 52845  53.2150 310.5506 0001357  39.9284 211.9504 15.73234507  1306","OBJECT_ID":"2022-062R","TIME_SYSTEM":"UTC","ARG_OF_PERICENTER":"39.9284","CENTER_NAME":"EARTH","RCS_SIZE":"LARGE","SEMIMAJOR_AXIS":"6727.797","BSTAR":"-0.00062446000000","MEAN_MOTION_DOT":"-0.00087482","DECAY_DATE":null,"EPOCH":"2022-07-06T14:00:01.000224","OBJECT_TYPE":"PAYLOAD","MEAN_MOTION_DDOT":"0.0000000000000","APOAPSIS":"350.575","ELEMENT_SET_NO":"999","MEAN_ELEMENT_THEORY":"SGP4","REV_AT_EPOCH":"130","FILE":"3508782","PERIOD":"91.531","NORAD_CAT_ID":"52845","CLASSIFICATION_TYPE":"U","COUNTRY_CODE":"US","SITE":"AFETR","INCLINATION":"53.2150","LAUNCH_DATE":"2022-06-17","OBJECT_NAME":"STARLINK-4168","EPHEMERIS_TYPE":"0","PERIAPSIS":"348.749","GP_ID":"207542501","TLE_LINE1":"1 52845U 22062R   22187.58334491 -.00087482  00000-0 -62446-3 0  9999","MEAN_ANOMALY":"211.9504","ECCENTRICITY":"0.00013570","MEAN_MOTION":"15.73234507","RA_OF_ASC_NODE":"310.5506","REF_FRAME":"TEME"},{"INCLINATION":"53.2154","SITE":"AFETR","EPHEMERIS_TYPE":"0","LAUNCH_DATE":"2022-06-17","OBJECT_NAME":"STARLINK-4212","FILE":"3508782","PERIOD":"91.533","NORAD_CAT_ID":"52846","CLASSIFICATION_TYPE":"U","ELEMENT_SET_NO":"999","APOAPSIS":"350.944","REV_AT_EPOCH":"130","MEAN_ELEMENT_THEORY":"SGP4","COUNTRY_CODE":"US","MEAN_ANOMALY":"215.3660","ECCENTRICITY":"0.00017690","REF_FRAME":"TEME","RA_OF_ASC_NODE":"310.5549","MEAN_MOTION":"15.73202166","GP_ID":"207541957","PERIAPSIS":"348.564","TLE_LINE1":"1 52846U 22062S   22187.58334491  .00005040  00000-0  40309-4 0  9993","MEAN_MOTION_DOT":"0.00005040","BSTAR":"0.00004030900000","TIME_SYSTEM":"UTC","ARG_OF_PERICENTER":"35.3422","TLE_LINE2":"2 52846  53.2154 310.5549 0001769  35.3422 215.3660 15.73202166  1306","OBJECT_ID":"2022-062S","SEMIMAJOR_AXIS":"6727.889","RCS_SIZE":"LARGE","CENTER_NAME":"EARTH","OBJECT_TYPE":"PAYLOAD","EPOCH":"2022-07-06T14:00:01.000224","MEAN_MOTION_DDOT":"0.0000000000000","DECAY_DATE":null},{"TLE_LINE1":"1 52847U 22062T   22187.58334491  .00003774  00000-0  31331-4 0  9991","GP_ID":"207542056","PERIAPSIS":"348.510","REF_FRAME":"TEME","MEAN_MOTION":"15.73177512","RA_OF_ASC_NODE":"310.5516","MEAN_ANOMALY":"214.0621","ECCENTRICITY":"0.00019530","COUNTRY_CODE":"US","PERIOD":"91.534","CLASSIFICATION_TYPE":"U","NORAD_CAT_ID":"52847","FILE":"3508782","MEAN_ELEMENT_THEORY":"SGP4","REV_AT_EPOCH":"130","APOAPSIS":"351.138","ELEMENT_SET_NO":"999","EPHEMERIS_TYPE":"0","OBJECT_NAME":"STARLINK-4206","LAUNCH_DATE":"2022-06-17","INCLINATION":"53.2159","SITE":"AFETR","DECAY_DATE":null,"MEAN_MOTION_DDOT":"0.0000000000000","OBJECT_TYPE":"PAYLOAD","EPOCH":"2022-07-06T14:00:01.000224","SEMIMAJOR_AXIS":"6727.959","RCS_SIZE":"LARGE","CENTER_NAME":"EARTH","TIME_SYSTEM":"UTC","ARG_OF_PERICENTER":"38.9728","OBJECT_ID":"2022-062T","TLE_LINE2":"2 52847  53.2159 310.5516 0001953  38.9728 214.0621 15.73177512  1308","MEAN_MOTION_DOT":"0.00003774","BSTAR":"0.00003133100000"},{"MEAN_ANOMALY":"204.8427","ECCENTRICITY":"0.00018920","REF_FRAME":"TEME","MEAN_MOTION":"15.73215624","RA_OF_ASC_NODE":"310.5563","GP_ID":"207541859","PERIAPSIS":"348.443","TLE_LINE1":"1 52848U 22062U   22187.58334491 -.00009233  00000-0 -61389-4 0  9996","INCLINATION":"53.2153","SITE":"AFETR","EPHEMERIS_TYPE":"0","OBJECT_NAME":"STARLINK-4202","LAUNCH_DATE":"2022-06-17","PERIOD":"91.532","CLASSIFICATION_TYPE":"U","NORAD_CAT_ID":"52848","FILE":"3508782","REV_AT_EPOCH":"130","MEAN_ELEMENT_THEORY":"SGP4","APOAPSIS":"350.989","ELEMENT_SET_NO":"999","COUNTRY_CODE":"US","OBJECT_TYPE":"PAYLOAD","EPOCH":"2022-07-06T14:00:01.000224","MEAN_MOTION_DDOT":"0.0000000000000","DECAY_DATE":null,"BSTAR":"-0.00006138900000","MEAN_MOTION_DOT":"-0.00009233","ARG_OF_PERICENTER":"44.6548","TIME_SYSTEM":"UTC","OBJECT_ID":"2022-062U","TLE_LINE2":"2 52848  53.2153 310.5563 0001892  44.6548 204.8427 15.73215624  1309","SEMIMAJOR_AXIS":"6727.851","RCS_SIZE":"MEDIUM","CENTER_NAME":"EARTH"},{"CENTER_NAME":"EARTH","SEMIMAJOR_AXIS":"6727.888","RCS_SIZE":"LARGE","TLE_LINE2":"2 52849  53.2153 310.5475 0001660  33.2235 221.0095 15.73202479  1308","OBJECT_ID":"2022-062V","ARG_OF_PERICENTER":"33.2235","TIME_SYSTEM":"UTC","MEAN_MOTION_DOT":"0.00011421","BSTAR":"0.00008567400000","DECAY_DATE":null,"MEAN_MOTION_DDOT":"0.0000000000000","OBJECT_TYPE":"PAYLOAD","EPOCH":"2022-07-06T14:00:01.000224","COUNTRY_CODE":"US","APOAPSIS":"350.870","ELEMENT_SET_NO":"999","REV_AT_EPOCH":"130","MEAN_ELEMENT_THEORY":"SGP4","FILE":"3508782","NORAD_CAT_ID":"52849","PERIOD":"91.533","CLASSIFICATION_TYPE":"U","LAUNCH_DATE":"2022-06-17","OBJECT_NAME":"STARLINK-4197","EPHEMERIS_TYPE":"0","SITE":"AFETR","INCLINATION":"53.2153","TLE_LINE1":"1 52849U 22062V   22187.58334491  .00011421  00000-0  85674-4 0  9990","PERIAPSIS":"348.636","GP_ID":"207542550","RA_OF_ASC_NODE":"310.5475","MEAN_MOTION":"15.73202479","REF_FRAME":"TEME","ECCENTRICITY":"0.00016600","MEAN_ANOMALY":"221.0095"}];
